      2.10          N: GNSS NAV DATA                        RINEX VERSION / TYPE
fic2rin                                 02/27/2023 00:17:34 PGM / RUN BY / DATE
                                                            END OF HEADER
7  23  2 26  1 59 44.0  .233990605921D-03 -.738964445191D-11  .000000000000D+00
     .300000000000D+01  .150625000000D+02  .453054585828D-08  .229522522582D+01
     .629574060440D-06  .168039102573D-01  .101812183857D-04  .515359285545D+04
     .718400000000D+04 -.651925802231D-07  .742716249844D+00 -.320374965668D-06
     .950577292640D+00  .177000000000D+03 -.222293822593D+01 -.779996775711D-08
    -.111076055335D-09  .100000000000D+01  .225100000000D+04  .000000000000D+00
     .240000000000D+01  .000000000000D+00 -.111758708954D-07  .300000000000D+01
     .000000000000D+00  .400000000000D+01
22 23  2 26 10  0  0.0  .434694811702D-03  .750333128963D-11  .000000000000D+00
     .890000000000D+02 -.329687500000D+02  .468840957679D-08  .277553577806D+01
    -.168196856976D-05  .140075186500D-01  .690110027790D-05  .515359686470D+04
     .360000000000D+05  .124797224998D-06 -.224423351333D+00 -.203028321266D-06
     .962694651868D+00  .243500000000D+03 -.182436934929D+01 -.783925510787D-08
    -.149649090628D-09  .100000000000D+01  .225100000000D+04  .000000000000D+00
     .240000000000D+01  .630000000000D+02 -.791624188423D-08  .890000000000D+02
     .288000000000D+05  .400000000000D+01
8  23  2 26  9 59 28.0 -.110333319753D-03 -.181898940355D-11  .000000000000D+00
     .300000000000D+01  .884375000000D+01  .452340270359D-08  .302138618621D+01
     .532716512680D-06  .835519167595D-02  .400096178055D-05  .515366465569D+04
     .359680000000D+05 -.596046447754D-07  .280864523345D+01 -.109896063805D-06
     .960090817145D+00  .304468750000D+03  .223226445889D+00 -.819784147300D-08
    -.321441960776D-10  .100000000000D+01  .225100000000D+04  .000000000000D+00
     .240000000000D+01  .000000000000D+00  .512227416039D-08  .300000000000D+01
     .288600000000D+05  .400000000000D+01
29 23  2 26  9 59 44.0 -.588146038353D-03 -.204636307899D-11  .000000000000D+00
     .800000000000D+01  .525000000000D+01  .417624538595D-08  .307178204339D+01
     .284984707832D-06  .222903583199D-02  .412948429585D-05  .515357569313D+04
     .359840000000D+05  .167638063431D-07  .291010698769D+01  .353902578354D-07
     .977855236190D+00  .308437500000D+03  .239380741454D+01 -.803533470394D-08
    -.814319633967D-10  .100000000000D+01  .225100000000D+04  .000000000000D+00
     .240000000000D+01  .000000000000D+00 -.102445483208D-07  .800000000000D+01
     .290100000000D+05  .400000000000D+01
30 23  2 26  9 59 44.0 -.528963748366D-03  .136424205266D-11  .000000000000D+00
     .100000000000D+01  .176562500000D+02  .510628412580D-08  .561491599579D-01
     .834465026855D-06  .617630418856D-02  .908225774765D-05  .515363337898D+04
     .359840000000D+05  .260770320892D-07  .749955233709D+00  .298023223877D-07
     .935693584582D+00  .186937500000D+03 -.264667865476D+01 -.831820362943D-08
    -.368586781690D-09  .100000000000D+01  .225100000000D+04  .000000000000D+00
     .240000000000D+01  .000000000000D+00  .372529029846D-08  .100000000000D+01
     .290400000000D+05  .400000000000D+01
25 23  2 26  9 59 44.0  .423294026405D-03  .306954461848D-11  .000000000000D+00
     .370000000000D+02  .743125000000D+02  .474591197200D-08 -.700567634300D+00
     .399164855480D-05  .111697907560D-01  .731647014618D-05  .515377186012D+04
     .359840000000D+05 -.186264514923D-08  .177596622060D+01  .195577740669D-06
     .953578828957D+00  .234750000000D+03  .103567193404D+01 -.833856162028D-08
    -.439304013061D-10  .100000000000D+01  .225100000000D+04  .000000000000D+00
     .240000000000D+01  .000000000000D+00  .558793544769D-08  .370000000000D+02
     .348600000000D+05  .400000000000D+01
9  23  2 26  9 59 44.0 -.211056787521D-03  .716227077646D-11  .000000000000D+00
     .100000000000D+01 -.253750000000D+02  .497949313016D-08 -.292344086425D+01
    -.122189521790D-05  .245391333010D-02  .710785388947D-05  .515365957451D+04
     .359840000000D+05  .204890966415D-07 -.328849801228D+00  .465661287308D-07
     .955954978036D+00  .242625000000D+03  .196934547745D+01 -.812426697976D-08
     .167864135072D-10  .100000000000D+01  .225100000000D+04  .000000000000D+00
     .240000000000D+01  .000000000000D+00  .139698386192D-08  .100000000000D+01
     .349500000000D+05  .400000000000D+01
9  23  2 26 11 59 44.0 -.211004633456D-03  .716227077646D-11  .000000000000D+00
     .200000000000D+01 -.275312500000D+02  .497199281774D-08 -.187313119573D+01
    -.135973095894D-05  .245360890403D-02  .705383718014D-05  .515366036797D+04
     .431840000000D+05  .558793544769D-08 -.328908304785D+00  .596046447754D-07
     .955955042405D+00  .244625000000D+03  .196922842206D+01 -.813748181592D-08
     .150006248362D-10  .100000000000D+01  .225100000000D+04  .000000000000D+00
     .240000000000D+01  .000000000000D+00  .139698386192D-08  .200000000000D+01
     .360000000000D+05  .400000000000D+01
29 23  2 26 11 59 44.0 -.588160473853D-03 -.204636307899D-11  .000000000000D+00
     .900000000000D+01  .113125000000D+02  .421838999859D-08 -.216111328469D+01
     .588595867157D-06  .222958903760D-02  .415928661823D-05  .515357484818D+04
     .431840000000D+05 -.465661287308D-07  .291004903127D+01  .689178705215D-07
     .977854324792D+00  .308687500000D+03  .239375658546D+01 -.810033741157D-08
    -.907180644858D-10  .100000000000D+01  .225100000000D+04  .000000000000D+00
     .240000000000D+01  .000000000000D+00 -.102445483208D-07  .900000000000D+01
     .360000000000D+05  .400000000000D+01
25 23  2 26 11 59 44.0  .423316378146D-03  .306954461848D-11  .000000000000D+00
     .380000000000D+02  .832500000000D+02  .467483758289D-08  .349528066356D+00
     .441446900368D-05  .111713298829D-01  .778213143349D-05  .515377467537D+04
     .431840000000D+05 -.158324837685D-06  .177590654525D+01  .135973095894D-06
     .953578438358D+00  .225031250000D+03  .103569825340D+01 -.830713173967D-08
    -.122862260563D-09  .100000000000D+01  .225100000000D+04  .000000000000D+00
     .240000000000D+01  .000000000000D+00  .558793544769D-08  .380000000000D+02
     .360000000000D+05  .400000000000D+01
14 23  2 26 11 59 44.0 -.177985057235D-04  .943600753089D-11  .000000000000D+00
     .205000000000D+03  .885937500000D+02  .475912680816D-08  .513271669197D+00
     .448152422905D-05  .272850028705D-02  .653602182865D-05  .515367284203D+04
     .431840000000D+05  .596046447754D-07  .181994207934D+01  .186264514923D-07
     .949301663185D+00  .245312500000D+03 -.308412738816D+01 -.828213069827D-08
    -.111790370803D-09  .100000000000D+01  .225100000000D+04  .000000000000D+00
     .240000000000D+01  .000000000000D+00 -.791624188423D-08  .205000000000D+03
     .360000000000D+05  .400000000000D+01
2  23  2 26 12  0  0.0 -.618198886514D-03  .261479726760D-11  .000000000000D+00
     .260000000000D+02 -.633125000000D+02  .437232498203D-08  .853859303353D+00
    -.350922346115D-05  .199756441871D-01  .658072531223D-05  .515368669319D+04
     .432000000000D+05 -.156462192535D-06 -.248284995104D+01 -.333413481712D-06
     .967278936810D+00  .259843750000D+03 -.132311219472D+01 -.837034865862D-08
    -.121433629627D-10  .100000000000D+01  .225100000000D+04  .000000000000D+00
     .240000000000D+01  .000000000000D+00 -.176951289177D-07  .260000000000D+02
     .360000000000D+05  .400000000000D+01
1  23  2 26 12  0  0.0  .208354089409D-03 -.409272615798D-11  .000000000000D+00
     .490000000000D+02 -.488750000000D+02  .371336896244D-08  .185450321614D+01
    -.261701643467D-05  .124088530429D-01  .781938433647D-05  .515365388680D+04
     .432000000000D+05 -.245869159698D-06 -.238586104249D+01 -.175088644028D-06
     .989589972120D+00  .244812500000D+03  .937461566431D+00 -.776675208783D-08
     .778603860547D-10  .100000000000D+01  .225100000000D+04  .000000000000D+00
     .240000000000D+01  .000000000000D+00  .465661287308D-08  .490000000000D+02
     .360000000000D+05  .400000000000D+01
5  23  2 26 12  0  0.0 -.117389485240D-03 -.147792889038D-11  .000000000000D+00
     .540000000000D+02 -.375000000000D+02  .438446834499D-08 -.184358174709D+01
    -.187568366528D-05  .578774034511D-02  .789202749729D-05  .515362112999D+04
     .432000000000D+05  .894069671631D-07 -.139967630479D+01  .409781932831D-07
     .964448604333D+00  .222593750000D+03  .112997474798D+01 -.789890044948D-08
     .441446959466D-09  .100000000000D+01  .225100000000D+04  .000000000000D+00
     .240000000000D+01  .000000000000D+00 -.111758708954D-07  .540000000000D+02
     .360000000000D+05  .400000000000D+01
3  23  2 26 12  0  0.0 -.358157325536D-03  .545696821064D-11  .000000000000D+00
     .760000000000D+02 -.213125000000D+02  .421838999859D-08  .706010592175D+00
    -.132806599140D-05  .450827716850D-02  .793673098087D-05  .515371496201D+04
     .432000000000D+05 -.651925802231D-07 -.135427404972D+01  .316649675369D-07
     .977426293980D+00  .234968750000D+03  .101090510693D+01 -.794640242813D-08
     .339299847486D-09  .100000000000D+01  .225100000000D+04  .000000000000D+00
     .240000000000D+01  .000000000000D+00  .186264514923D-08  .760000000000D+02
     .360000000000D+05  .400000000000D+01
12 23  2 26 12  0  0.0 -.344997271895D-03 -.466116034659D-11  .000000000000D+00
     .160000000000D+02  .844375000000D+02  .435125267571D-08  .451486153593D+00
     .435300171375D-05  .894067948684D-02  .774674117565D-05  .515365659904D+04
     .432000000000D+05 -.156462192535D-06  .185720707350D+01 -.204890966415D-07
     .965949839162D+00  .232718750000D+03  .134158571356D+01 -.815069665209D-08
    -.106790162525D-09  .100000000000D+01  .225100000000D+04  .000000000000D+00
     .240000000000D+01  .000000000000D+00 -.125728547573D-07  .160000000000D+02
     .360000000000D+05  .400000000000D+01
